STARLINK-3600           
1 51800U 22017AJ  22174.16668981  .00021329  00000+0  13544-2 0  9992
2 51800  53.2152 314.2935 0001526  54.1382 115.1082 15.08833407 19320
STARLINK-3592           
1 51801U 22017AK  22174.16668981  .00020990  00000+0  13333-2 0  9992
2 51801  53.2147 314.2935 0001826  49.0415  45.4264 15.08830781 19282
STARLINK-3557           
1 51802U 22017AL  22174.16668981  .00049394  00000+0  31031-2 0  9997
2 51802  53.2180 314.2943 0001602  55.4527 293.8007 15.08802916 19278
STARLINK-3544           
1 51803U 22017AM  22173.91667824 -.00005902  00000+0 -35303-3 0  9991
2 51803  53.2160 315.4212 0001710  47.3149 188.4132 15.08838078  1300
STARLINK-3601           
1 51804U 22017AN  22173.91667824 -.00001144  00000+0 -53776-4 0  9991
2 51804  53.2174 295.4061 0001401  83.7856  81.8924 15.08853956  1308
STARLINK-3605           
1 51805U 22017AP  22173.91667824 -.00002368  00000+0 -13070-3 0  9993
2 51805  53.2136 295.4249 0001813  49.0421 136.6426 15.08848933  1300
STARLINK-3581           
1 51806U 22017AQ  22174.16668981  .00003649  00000+0  24734-3 0  9997
2 51806  53.2194 304.2955 0001685  46.9462 342.5436 15.08823583 19421
STARLINK-3606           
1 51807U 22017AR  22173.91667824 -.00026604  00000+0 -16591-2 0  9994
2 51807  53.2198 305.4200 0001837  41.1811  29.5208 15.08850771  1302
STARLINK-3609           
1 51808U 22017AS  22174.16668981  .00019723  00000+0  12548-2 0  9998
2 51808  53.2193 304.2955 0001584  48.6868  20.8019 15.08811503 19421
STARLINK-3607           
1 51809U 22017AT  22174.00002315 -.00019280  00000+0 -11960-2 0  9992
2 51809  53.2183 305.0449 0001859  43.3767 140.2851 15.08854736 19395
STARLINK-3613           
1 51810U 22017AU  22174.16668981  .00001298  00000+0  99607-4 0  9992
2 51810  53.2153 294.2831 0001418 106.5159 192.7591 15.08839966 19566
STARLINK-3569           
1 51811U 22017AV  22173.91667824 -.00030823  00000+0 -19259-2 0  9991
2 51811  53.2179 305.4199 0001824  40.6353  90.0607 15.08857283  1305
STARLINK-3610           
1 51812U 22017AW  22173.91667824 -.00034612  00000+0 -21658-2 0  9998
2 51812  53.2151 295.4057 0001335  89.0983 356.6184 15.08862300  1307
STARLINK-3552           
1 51813U 22017AX  22173.91667824 -.00035657  00000+0 -22320-2 0  9996
2 51813  53.2126 295.4240 0001538  50.6262 149.8785 15.08863226  1300
STARLINK-3599           
1 51814U 22017AY  22173.91667824 -.00001682  00000+0 -87631-4 0  9996
2 51814  53.2154 295.4051 0001161  82.8235  42.8927 15.08831083  1307
STARLINK-3604           
1 51815U 22017AZ  22174.16668981  .00043150  00000+0  27133-2 0  9993
2 51815  53.2151 294.2819 0001175 108.1025 276.3203 15.08832383 19560
STARLINK-3603           
1 51816U 22017BA  22173.91667824 -.00001293  00000+0 -63175-4 0  9993
2 51816  53.2163 295.4048 0001323  94.9988  50.6977 15.08835473  1303
STARLINK-3596           
1 51817U 22017BB  22174.01572334  .00000091  00000+0  46392-5 0  9993
2 51817  53.2126 277.2635 0009328 299.8621  60.1473 15.76718279 19783
L-SAR 01B               
1 51822U 22018A   22173.65166376  .00000340  00000+0  42541-4 0  9992
2 51822  97.8111 180.9563 0001842  77.1261 283.0165 14.88419830 17209
2022-019A               
1 51824U 22019A   22174.16373160  .00003700  00000+0  23398-3 0  9994
2 51824  97.5106 248.5840 0019384 229.6321 214.0563 15.09480593 17509
2022-019B               
1 51825U 22019B   22174.14893481  .00003742  00000+0  23582-3 0  9997
2 51825  97.5108 248.5887 0017499 225.2046 222.2113 15.09631322 17492
2022-019C               
1 51826U 22019C   22174.12684146  .00004026  00000+0  25071-3 0  9993
2 51826  97.5094 248.6042 0016520 226.5988 224.9153 15.10038635 17497
2022-019D               
1 51827U 22019D   22174.12954510  .00003168  00000+0  19900-3 0  9999
2 51827  97.5114 248.6338 0015540 225.2164 226.7292 15.09884470 17490
2022-019E               
1 51828U 22019E   22174.17216561  .00004117  00000+0  25527-3 0  9999
2 51828  97.5109 248.6953 0016044 227.5253 162.0194 15.10191369 17507
2022-019F               
1 51829U 22019F   22174.14443578  .00006028  00000+0  36633-3 0  9990
2 51829  97.5161 248.7852 0015483 227.1853 132.8077 15.10739690 17503
2022-019G               
1 51830U 22019G   22174.14467457  .00006155  00000+0  37395-3 0  9991
2 51830  97.5096 248.6847 0016256 225.9341 134.0551 15.10732837 17509
2022-019H               
1 51831U 22019H   22174.15504395  .00003822  00000+0  23244-3 0  9992
2 51831  97.5113 248.7229 0019657 230.8590 160.2405 15.10885421 17501
2022-019J               
1 51832U 22019J   22174.18331135  .00003148  00000+0  19839-3 0  9992
2 51832  97.5105 248.6701 0009639 229.5451 158.2788 15.09828429 17501
2022-019K               
1 51833U 22019K   22174.14273057  .00005665  00000+0  34395-3 0  9997
2 51833  97.5097 248.7245 0014599 229.6182 217.6749 15.10813763 17503
2022-019L               
1 51834U 22019L   22174.15715473  .00004396  00000+0  26914-3 0  9990
2 51834  97.5118 248.7552 0016281 237.0771 206.7029 15.10613536 17502
2022-019M               
1 51835U 22019M   22174.15266656  .00004226  00000+0  25845-3 0  9999
2 51835  97.5119 248.7514 0016415 234.6531 209.8117 15.10672567 17509
2022-019N               
1 51836U 22019N   22174.18205843  .00006208  00000+0  37252-3 0  9991
2 51836  97.5102 248.8282 0014928 231.3034 156.7811 15.11195681 17514
2022-019P               
1 51837U 22019P   22174.16989198  .00006073  00000+0  36312-3 0  9998
2 51837  97.5062 248.7769 0014001 235.2511 154.5431 15.11346784 17510
2022-019Q               
1 51838U 22019Q   22174.13126057  .00004106  00000+0  25040-3 0  9994
2 51838  97.5110 248.7757 0013996 233.5261 213.7059 15.10820645 17502
2022-019R               
1 51839U 22019R   22174.32701726  .00007368  00000+0  45260-3 0  9997
2 51839  97.5085 248.9574 0012347 222.5631 224.4454 15.10308051 17534
2022-019S               
1 51840U 22019S   22174.17766522  .00003972  00000+0  24094-3 0  9996
2 51840  97.5116 248.8412 0013842 230.6853 158.1328 15.11035927 17519
2022-019T               
1 51841U 22019T   22174.17313260  .00003714  00000+0  22522-3 0  9992
2 51841  97.5102 248.8365 0013611 230.1957 159.2710 15.11095173 17512
2022-019U               
1 51842U 22019U   22174.15312360  .00008034  00000+0  31582-3 0  9997
2 51842  97.5584 251.7489 0069603 167.2200 226.0334 15.23678355 17652
2022-019V               
1 51843U 22019V   22174.13196139  .00003723  00000+0  22824-3 0  9999
2 51843  97.5140 248.8171 0014368 238.8064 208.4213 15.10681100 17509
2022-019W               
1 51844U 22019W   22174.16521211  .00003572  00000+0  21715-3 0  9996
2 51844  97.5095 248.6886 0021030 232.5357 157.5977 15.10916757 17409
2022-019X               
1 51845U 22019X   22174.13479612  .00005321  00000+0  32254-3 0  9995
2 51845  97.5116 248.7750 0014694 232.8661 214.3483 15.10901060 17421
STRIX-BETA              
1 51847U 22020A   22174.07545598  .00002020  00000+0  16321-3 0  9999
2 51847  97.7645 227.8884 0009561 266.6543  93.3600 15.00937793 17134
GOES 18                 
1 51850U 22021A   22173.78762278  .00000095  00000+0  00000+0 0  9990
2 51850   0.0634 115.6017 0002751 105.7045 196.3632  1.00273286  1181
STARLINK-3542           
1 51852U 22022A   22173.91667824  .00049892  00000+0  31340-2 0  9991
2 51852  53.2165 345.4234 0001849  45.6751 305.0537 15.08802391  1304
STARLINK-3539           
1 51853U 22022B   22173.91667824  .00050075  00000+0  31453-2 0  9992
2 51853  53.2166 345.4249 0001701  50.4099 280.2738 15.08803319  1306
STARLINK-3541           
1 51854U 22022C   22173.91667824  .00008951  00000+0  57985-3 0  9998
2 51854  53.2167 345.4204 0001851  39.1218 331.6252 15.08834369  1303
STARLINK-3545           
1 51855U 22022D   22173.91667824  .00021667  00000+0  13754-2 0  9993
2 51855  53.2160 345.4173 0001784  50.3119   0.3871 15.08836255  1305
STARLINK-3568           
1 51856U 22022E   22173.91667824  .00010855  00000+0  69929-3 0  9997
2 51856  53.2174 345.4234 0001838  38.3846 352.3680 15.08828585  1307
STARLINK-3571           
1 51857U 22022F   22173.91667824  .00053314  00000+0  33463-2 0  9998
2 51857  53.2160 345.4171 0001537  62.8482  27.8367 15.08801013  1300
STARLINK-3563           
1 51858U 22022G   22174.25001157  .00019722  00000+0  12545-2 0  9991
2 51858  53.2164 343.9202 0001481  59.5434  22.7673 15.08819386 18394
STARLINK-3560           
1 51859U 22022H   22173.91667824  .00050807  00000+0  31905-2 0  9993
2 51859  53.2141 335.4178 0001569  50.5315 295.1576 15.08805284  1307
STARLINK-3559           
1 51860U 22022J   22174.25001157  .00031035  00000+0  19610-2 0  9995
2 51860  53.2174 333.9094 0001352  71.9090 245.4253 15.08811973 18481
STARLINK-3562           
1 51861U 22022K   22174.25001157  .00037188  00000+0  23430-2 0  9996
2 51861  53.2141 333.9235 0001581  45.0655 352.2221 15.08830383 18484
STARLINK-3508           
1 51862U 22022L   22173.91667824  .00006632  00000+0  43446-3 0  9998
2 51862  53.2167 335.4066 0001678  48.2754 277.4394 15.08836301  1302
STARLINK-3555           
1 51863U 22022M   22173.91667824  .00037075  00000+0  23357-2 0  9992
2 51863  53.2160 335.4273 0001842  51.4406  14.2679 15.08834758  1306
STARLINK-3548           
1 51864U 22022N   22174.25001157 -.00029067  00000+0 -18169-2 0  9991
2 51864  53.2158 333.9197 0001539  54.8407 322.4827 15.08814149 18537
STARLINK-3503           
1 51865U 22022P   22174.25001157  .00024072  00000+0  15258-2 0  9997
2 51865  53.2168 333.9304 0001448  53.9204  63.3946 15.08830366 18489
STARLINK-3553           
1 51866U 22022Q   22174.25001157  .00036409  00000+0  22951-2 0  9993
2 51866  53.2150 333.9266 0001626  52.8663   4.4169 15.08821370 18481
STARLINK-3590           
1 51867U 22022R   22173.91667824  .00051208  00000+0  32158-2 0  9999
2 51867  53.2182 335.4314 0001929  47.4111  78.2970 15.08800136  1301
